[{"OBJECT_NAME":"STARLINK-1799","OBJECT_ID":"2020-073AF","EPOCH":"2026-03-10T00:00:02.999808","MEAN_MOTION":15.76402839,"ECCENTRICITY":0.0005505,"INCLINATION":53.0426,"RA_OF_ASC_NODE":193.868,"ARG_OF_PERICENTER":242.728,"MEAN_ANOMALY":274.3296,"EPHEMERIS_TYPE":0,"CLASSIFICATION_TYPE":"U","NORAD_CAT_ID":46699,"ELEMENT_SET_NO":999,"REV_AT_EPOCH":586,"BSTAR":0.00068876856,"MEAN_MOTION_DOT":0.00112035,"MEAN_MOTION_DDOT":0},{"OBJECT_NAME":"STARLINK-36417","OBJECT_ID":"2026-014B","EPOCH":"2026-03-09T15:54:47.558016","MEAN_MOTION":15.75188197,"ECCENTRICITY":0.0001368,"INCLINATION":97.2841,"RA_OF_ASC_NODE":313.509,"ARG_OF_PERICENTER":39.0397,"MEAN_ANOMALY":321.0966,"EPHEMERIS_TYPE":0,"CLASSIFICATION_TYPE":"U","NORAD_CAT_ID":67533,"ELEMENT_SET_NO":999,"REV_AT_EPOCH":856,"BSTAR":0.00066195,"MEAN_MOTION_DOT":0.00099756,"MEAN_MOTION_DDOT":0}]
